STARLINK-36633          
1 67632U 26020R   26039.58335648 -.01783836  00000+0 -85830-2 0  9999
2 67632  42.9996 319.1244 0001894 264.6055  24.9682 15.84884979  2713
STARLINK-36637          
1 67633U 26020S   26039.58335648 -.01780416  00000+0 -85063-2 0  9999
2 67633  42.9996 319.1171 0001741 257.9671  34.6331 15.85024601  2711
STARLINK-36617          
1 67634U 26020T   26039.58335648 -.01776388  00000+0 -84182-2 0  9994
2 67634  42.9996 319.1082 0001698 266.1884  29.8869 15.85183522  2712
STARLINK-36627          
1 67635U 26020U   26039.58335648 -.01776290  00000+0 -81929-2 0  9993
2 67635  42.9996 319.0775 0001857 260.7943  47.4276 15.85730789  2715
STARLINK-36624          
1 67636U 26020V   26039.58335648 -.01773795  00000+0 -82331-2 0  9999
2 67636  42.9998 319.0849 0001786 264.2713  41.1525 15.85599430  2719
STARLINK-36610          
1 67637U 26020W   26039.58335648 -.01768452  00000+0 -80660-2 0  9997
2 67637  42.9997 319.0669 0001791 267.4051  45.1194 15.85943111  2710
STARLINK-36599          
1 67638U 26020X   26039.58335648 -.01766512  00000+0 -79781-2 0  9995
2 67638  42.9996 319.0568 0001779 256.3550  60.1687 15.86138584  2710
STARLINK-36595          
1 67639U 26020Y   26039.58335648 -.01764895  00000+0 -78954-2 0  9999
2 67639  42.9997 319.0472 0002011 259.8306  60.4569 15.86323595  2713
STARLINK-36570          
1 67640U 26020Z   26039.58335648 -.01759097  00000+0 -78148-2 0  9994
2 67640  42.9996 319.0398 0002030 259.2955  63.7971 15.86452551  2714
STARLINK-36514          
1 67641U 26020AA  26039.58335648 -.01754061  00000+0 -76372-2 0  9998
2 67641  42.9995 319.0196 0001883 259.8734  71.2275 15.86848929  2715
STARLINK-36556          
1 67642U 26020AB  26039.58335648 -.01758210  00000+0 -76034-2 0  9994
2 67642  42.9996 319.0118 0001955 264.0363  70.0428 15.86991514  2713
STARLINK-36533          
1 67643U 26020AC  26039.58335648 -.01763845  00000+0 -77645-2 0  9994
2 67643  42.9995 319.0299 0001860 262.7563  64.1991 15.86647826  2718
