CCSDS_OMM_VERS = 2.0
CREATION_DATE  = 
ORIGINATOR     = 

OBJECT_NAME    = STARLINK-36633
OBJECT_ID      = 2026-020R
CENTER_NAME    = EARTH
REF_FRAME      = TEME
TIME_SYSTEM    = UTC
MEAN_ELEMENT_THEORY = SGP/SGP4

EPOCH          = 2026-02-08T14:00:01.999872
MEAN_MOTION    = 15.84884979
ECCENTRICITY   = .00018942
INCLINATION    = 42.9996
RA_OF_ASC_NODE = 319.1244
ARG_OF_PERICENTER = 264.6055
MEAN_ANOMALY   = 24.9682

EPHEMERIS_TYPE = 0
CLASSIFICATION_TYPE = U
NORAD_CAT_ID   = 67632
ELEMENT_SET_NO = 999
REV_AT_EPOCH   = 271
BSTAR          = -.8582979E-2
MEAN_MOTION_DOT = -.1783836E-1
MEAN_MOTION_DDOT = 0

CCSDS_OMM_VERS = 2.0
CREATION_DATE  = 
ORIGINATOR     = 

OBJECT_NAME    = STARLINK-36637
OBJECT_ID      = 2026-020S
CENTER_NAME    = EARTH
REF_FRAME      = TEME
TIME_SYSTEM    = UTC
MEAN_ELEMENT_THEORY = SGP/SGP4

EPOCH          = 2026-02-08T14:00:01.999872
MEAN_MOTION    = 15.85024601
ECCENTRICITY   = .00017415
INCLINATION    = 42.9996
RA_OF_ASC_NODE = 319.1171
ARG_OF_PERICENTER = 257.9671
MEAN_ANOMALY   = 34.6331

EPHEMERIS_TYPE = 0
CLASSIFICATION_TYPE = U
NORAD_CAT_ID   = 67633
ELEMENT_SET_NO = 999
REV_AT_EPOCH   = 271
BSTAR          = -.85062998E-2
MEAN_MOTION_DOT = -.1780416E-1
MEAN_MOTION_DDOT = 0

CCSDS_OMM_VERS = 2.0
CREATION_DATE  = 
ORIGINATOR     = 

OBJECT_NAME    = STARLINK-36617
OBJECT_ID      = 2026-020T
CENTER_NAME    = EARTH
REF_FRAME      = TEME
TIME_SYSTEM    = UTC
MEAN_ELEMENT_THEORY = SGP/SGP4

EPOCH          = 2026-02-08T14:00:01.999872
MEAN_MOTION    = 15.85183522
ECCENTRICITY   = .00016985
INCLINATION    = 42.9996
RA_OF_ASC_NODE = 319.1082
ARG_OF_PERICENTER = 266.1884
MEAN_ANOMALY   = 29.8869

EPHEMERIS_TYPE = 0
CLASSIFICATION_TYPE = U
NORAD_CAT_ID   = 67634
ELEMENT_SET_NO = 999
REV_AT_EPOCH   = 271
BSTAR          = -.8418173E-2
MEAN_MOTION_DOT = -.1776388E-1
MEAN_MOTION_DDOT = 0

CCSDS_OMM_VERS = 2.0
CREATION_DATE  = 
ORIGINATOR     = 

OBJECT_NAME    = STARLINK-36627
OBJECT_ID      = 2026-020U
CENTER_NAME    = EARTH
REF_FRAME      = TEME
TIME_SYSTEM    = UTC
MEAN_ELEMENT_THEORY = SGP/SGP4

EPOCH          = 2026-02-08T14:00:01.999872
MEAN_MOTION    = 15.85730789
ECCENTRICITY   = .00018574
INCLINATION    = 42.9996
RA_OF_ASC_NODE = 319.0775
ARG_OF_PERICENTER = 260.7943
MEAN_ANOMALY   = 47.4276

EPHEMERIS_TYPE = 0
CLASSIFICATION_TYPE = U
NORAD_CAT_ID   = 67635
ELEMENT_SET_NO = 999
REV_AT_EPOCH   = 271
BSTAR          = -.81929376E-2
MEAN_MOTION_DOT = -.177629E-1
MEAN_MOTION_DDOT = 0

CCSDS_OMM_VERS = 2.0
CREATION_DATE  = 
ORIGINATOR     = 

OBJECT_NAME    = STARLINK-36624
OBJECT_ID      = 2026-020V
CENTER_NAME    = EARTH
REF_FRAME      = TEME
TIME_SYSTEM    = UTC
MEAN_ELEMENT_THEORY = SGP/SGP4

EPOCH          = 2026-02-08T14:00:01.999872
MEAN_MOTION    = 15.85599430
ECCENTRICITY   = .00017864
INCLINATION    = 42.9998
RA_OF_ASC_NODE = 319.0849
ARG_OF_PERICENTER = 264.2713
MEAN_ANOMALY   = 41.1525

EPHEMERIS_TYPE = 0
CLASSIFICATION_TYPE = U
NORAD_CAT_ID   = 67636
ELEMENT_SET_NO = 999
REV_AT_EPOCH   = 271
BSTAR          = -.82330925E-2
MEAN_MOTION_DOT = -.1773795E-1
MEAN_MOTION_DDOT = 0

CCSDS_OMM_VERS = 2.0
CREATION_DATE  = 
ORIGINATOR     = 

OBJECT_NAME    = STARLINK-36610
OBJECT_ID      = 2026-020W
CENTER_NAME    = EARTH
REF_FRAME      = TEME
TIME_SYSTEM    = UTC
MEAN_ELEMENT_THEORY = SGP/SGP4

EPOCH          = 2026-02-08T14:00:01.999872
MEAN_MOTION    = 15.85943111
ECCENTRICITY   = .00017914
INCLINATION    = 42.9997
RA_OF_ASC_NODE = 319.0669
ARG_OF_PERICENTER = 267.4051
MEAN_ANOMALY   = 45.1194

EPHEMERIS_TYPE = 0
CLASSIFICATION_TYPE = U
NORAD_CAT_ID   = 67637
ELEMENT_SET_NO = 999
REV_AT_EPOCH   = 271
BSTAR          = -.80660106E-2
MEAN_MOTION_DOT = -.1768452E-1
MEAN_MOTION_DDOT = 0

CCSDS_OMM_VERS = 2.0
CREATION_DATE  = 
ORIGINATOR     = 

OBJECT_NAME    = STARLINK-36599
OBJECT_ID      = 2026-020X
CENTER_NAME    = EARTH
REF_FRAME      = TEME
TIME_SYSTEM    = UTC
MEAN_ELEMENT_THEORY = SGP/SGP4

EPOCH          = 2026-02-08T14:00:01.999872
MEAN_MOTION    = 15.86138584
ECCENTRICITY   = .0001779
INCLINATION    = 42.9996
RA_OF_ASC_NODE = 319.0568
ARG_OF_PERICENTER = 256.3550
MEAN_ANOMALY   = 60.1687

EPHEMERIS_TYPE = 0
CLASSIFICATION_TYPE = U
NORAD_CAT_ID   = 67638
ELEMENT_SET_NO = 999
REV_AT_EPOCH   = 271
BSTAR          = -.79781269E-2
MEAN_MOTION_DOT = -.1766512E-1
MEAN_MOTION_DDOT = 0

CCSDS_OMM_VERS = 2.0
CREATION_DATE  = 
ORIGINATOR     = 

OBJECT_NAME    = STARLINK-36595
OBJECT_ID      = 2026-020Y
CENTER_NAME    = EARTH
REF_FRAME      = TEME
TIME_SYSTEM    = UTC
MEAN_ELEMENT_THEORY = SGP/SGP4

EPOCH          = 2026-02-08T14:00:01.999872
MEAN_MOTION    = 15.86323595
ECCENTRICITY   = .00020114
INCLINATION    = 42.9997
RA_OF_ASC_NODE = 319.0472
ARG_OF_PERICENTER = 259.8306
MEAN_ANOMALY   = 60.4569

EPHEMERIS_TYPE = 0
CLASSIFICATION_TYPE = U
NORAD_CAT_ID   = 67639
ELEMENT_SET_NO = 999
REV_AT_EPOCH   = 271
BSTAR          = -.78954134E-2
MEAN_MOTION_DOT = -.1764895E-1
MEAN_MOTION_DDOT = 0

CCSDS_OMM_VERS = 2.0
CREATION_DATE  = 
ORIGINATOR     = 

OBJECT_NAME    = STARLINK-36570
OBJECT_ID      = 2026-020Z
CENTER_NAME    = EARTH
REF_FRAME      = TEME
TIME_SYSTEM    = UTC
MEAN_ELEMENT_THEORY = SGP/SGP4

EPOCH          = 2026-02-08T14:00:01.999872
MEAN_MOTION    = 15.86452551
ECCENTRICITY   = .00020308
INCLINATION    = 42.9996
RA_OF_ASC_NODE = 319.0398
ARG_OF_PERICENTER = 259.2955
MEAN_ANOMALY   = 63.7971

EPHEMERIS_TYPE = 0
CLASSIFICATION_TYPE = U
NORAD_CAT_ID   = 67640
ELEMENT_SET_NO = 999
REV_AT_EPOCH   = 271
BSTAR          = -.78147972E-2
MEAN_MOTION_DOT = -.1759097E-1
MEAN_MOTION_DDOT = 0

CCSDS_OMM_VERS = 2.0
CREATION_DATE  = 
ORIGINATOR     = 

OBJECT_NAME    = STARLINK-36514
OBJECT_ID      = 2026-020AA
CENTER_NAME    = EARTH
REF_FRAME      = TEME
TIME_SYSTEM    = UTC
MEAN_ELEMENT_THEORY = SGP/SGP4

EPOCH          = 2026-02-08T14:00:01.999872
MEAN_MOTION    = 15.86848929
ECCENTRICITY   = .00018836
INCLINATION    = 42.9995
RA_OF_ASC_NODE = 319.0196
ARG_OF_PERICENTER = 259.8734
MEAN_ANOMALY   = 71.2275

EPHEMERIS_TYPE = 0
CLASSIFICATION_TYPE = U
NORAD_CAT_ID   = 67641
ELEMENT_SET_NO = 999
REV_AT_EPOCH   = 271
BSTAR          = -.76371718E-2
MEAN_MOTION_DOT = -.1754061E-1
MEAN_MOTION_DDOT = 0

CCSDS_OMM_VERS = 2.0
CREATION_DATE  = 
ORIGINATOR     = 

OBJECT_NAME    = STARLINK-36556
OBJECT_ID      = 2026-020AB
CENTER_NAME    = EARTH
REF_FRAME      = TEME
TIME_SYSTEM    = UTC
MEAN_ELEMENT_THEORY = SGP/SGP4

EPOCH          = 2026-02-08T14:00:01.999872
MEAN_MOTION    = 15.86991514
ECCENTRICITY   = .00019552
INCLINATION    = 42.9996
RA_OF_ASC_NODE = 319.0118
ARG_OF_PERICENTER = 264.0363
MEAN_ANOMALY   = 70.0428

EPHEMERIS_TYPE = 0
CLASSIFICATION_TYPE = U
NORAD_CAT_ID   = 67642
ELEMENT_SET_NO = 999
REV_AT_EPOCH   = 271
BSTAR          = -.76034139E-2
MEAN_MOTION_DOT = -.175821E-1
MEAN_MOTION_DDOT = 0

CCSDS_OMM_VERS = 2.0
CREATION_DATE  = 
ORIGINATOR     = 

OBJECT_NAME    = STARLINK-36533
OBJECT_ID      = 2026-020AC
CENTER_NAME    = EARTH
REF_FRAME      = TEME
TIME_SYSTEM    = UTC
MEAN_ELEMENT_THEORY = SGP/SGP4

EPOCH          = 2026-02-08T14:00:01.999872
MEAN_MOTION    = 15.86647826
ECCENTRICITY   = .00018609
INCLINATION    = 42.9995
RA_OF_ASC_NODE = 319.0299
ARG_OF_PERICENTER = 262.7563
MEAN_ANOMALY   = 64.1991

EPHEMERIS_TYPE = 0
CLASSIFICATION_TYPE = U
NORAD_CAT_ID   = 67643
ELEMENT_SET_NO = 999
REV_AT_EPOCH   = 271
BSTAR          = -.77645061E-2
MEAN_MOTION_DOT = -.1763845E-1
MEAN_MOTION_DDOT = 0

